{
  "type": "FeatureCollection",
  "features": [
    {
      "type": "Feature",
      "properties": {
        "norad_id": 41948,
        "name": "CARTOSAT-2D",
        "group": "resource",
        "lat": -45.41139368258973,
        "lon": -130.99036699789252,
        "alt_km": 516.2970254990942,
        "timestamp": "2025-12-25T07:41:09.380450+00:00",
        "meta_object_name": "CARTOSAT-2D",
        "meta_object_id": "2017-008A",
        "meta_epoch": "2025-12-24T22:47:28.985856",
        "meta_mean_motion": 15.19182905,
        "meta_eccentricity": 0.0005453,
        "meta_inclination": 97.4371,
        "meta_ra_of_asc_node": 56.2598,
        "meta_arg_of_pericenter": 118.4674,
        "meta_mean_anomaly": 241.7111,
        "meta_ephemeris_type": 0,
        "meta_classification_type": "U",
        "meta_norad_cat_id": 41948,
        "meta_element_set_no": 999,
        "meta_rev_at_epoch": 49112,
        "meta_bstar": 0.00019918667,
        "meta_mean_motion_dot": 4.123e-05,
        "meta_mean_motion_ddot": 0,
        "tle_line1": "1 41948U 17008A   25358.94964104  .00004123  00000+0  19919-3 0  9993",
        "tle_line2": "2 41948  97.4371  56.2598 0005453 118.4674 241.7111 15.19182905491127"
      },
      "geometry": {
        "type": "Point",
        "coordinates": [
          -130.99036699789252,
          -45.41139368258973
        ]
      }
    },
    {
      "type": "Feature",
      "properties": {
        "norad_id": 42063,
        "name": "SENTINEL-2B",
        "group": "resource",
        "lat": 30.95727363148498,
        "lon": -103.22126188262756,
        "alt_km": 786.8453118560319,
        "timestamp": "2025-12-25T07:41:09.380460+00:00",
        "meta_object_name": "SENTINEL-2B",
        "meta_object_id": "2017-013A",
        "meta_epoch": "2025-12-24T22:36:08.656704",
        "meta_mean_motion": 14.30814862,
        "meta_eccentricity": 0.00011816,
        "meta_inclination": 98.57,
        "meta_ra_of_asc_node": 71.2159,
        "meta_arg_of_pericenter": 90.7367,
        "meta_mean_anomaly": 269.3952,
        "meta_ephemeris_type": 0,
        "meta_classification_type": "U",
        "meta_norad_cat_id": 42063,
        "meta_element_set_no": 999,
        "meta_rev_at_epoch": 45972,
        "meta_bstar": 6.175192e-06,
        "meta_mean_motion_dot": -2.7e-07,
        "meta_mean_motion_ddot": 0,
        "tle_line1": "1 42063U 17013A   25358.94176686 -.00000027  00000+0  61752-5 0  9992",
        "tle_line2": "2 42063  98.5700  71.2159 0001181  90.7367 269.3952 14.30814862459724"
      },
      "geometry": {
        "type": "Point",
        "coordinates": [
          -103.22126188262756,
          30.95727363148498
        ]
      }
    },
    {
      "type": "Feature",
      "properties": {
        "norad_id": 42767,
        "name": "CARTOSAT-2E",
        "group": "resource",
        "lat": 44.43357430401353,
        "lon": -115.88406306452677,
        "alt_km": 503.16387594461594,
        "timestamp": "2025-12-25T07:41:09.380470+00:00",
        "meta_object_name": "CARTOSAT-2E",
        "meta_object_id": "2017-036C",
        "meta_epoch": "2025-12-25T00:46:13.498752",
        "meta_mean_motion": 15.19192045,
        "meta_eccentricity": 0.0002613,
        "meta_inclination": 97.4535,
        "meta_ra_of_asc_node": 56.4571,
        "meta_arg_of_pericenter": 175.1056,
        "meta_mean_anomaly": 185.0204,
        "meta_ephemeris_type": 0,
        "meta_classification_type": "U",
        "meta_norad_cat_id": 42767,
        "meta_element_set_no": 999,
        "meta_rev_at_epoch": 47170,
        "meta_bstar": 0.00016621,
        "meta_mean_motion_dot": 3.429e-05,
        "meta_mean_motion_ddot": 0,
        "tle_line1": "1 42767U 17036C   25359.03210068  .00003429  00000+0  16621-3 0  9993",
        "tle_line2": "2 42767  97.4535  56.4571 0002613 175.1056 185.0204 15.19192045471702"
      },
      "geometry": {
        "type": "Point",
        "coordinates": [
          -115.88406306452677,
          44.43357430401353
        ]
      }
    },
    {
      "type": "Feature",
      "properties": {
        "norad_id": 42920,
        "name": "FORMOSAT-5",
        "group": "resource",
        "lat": -24.00217835227388,
        "lon": 77.08692726158188,
        "alt_km": 727.0963931622082,
        "timestamp": "2025-12-25T07:41:09.380480+00:00",
        "meta_object_name": "FORMOSAT-5",
        "meta_object_id": "2017-049A",
        "meta_epoch": "2025-12-24T20:12:38.392992",
        "meta_mean_motion": 14.50767344,
        "meta_eccentricity": 0.00098334,
        "meta_inclination": 98.2438,
        "meta_ra_of_asc_node": 72.9173,
        "meta_arg_of_pericenter": 260.0688,
        "meta_mean_anomaly": 99.9397,
        "meta_ephemeris_type": 0,
        "meta_classification_type": "U",
        "meta_norad_cat_id": 42920,
        "meta_element_set_no": 999,
        "meta_rev_at_epoch": 44139,
        "meta_bstar": 7.1255107e-05,
        "meta_mean_motion_dot": 2.37e-06,
        "meta_mean_motion_ddot": 0,
        "tle_line1": "1 42920U 17049A   25358.84211103  .00000237  00000+0  71255-4 0  9996",
        "tle_line2": "2 42920  98.2438  72.9173 0009833 260.0688  99.9397 14.50767344441393"
      },
      "geometry": {
        "type": "Point",
        "coordinates": [
          77.08692726158188,
          -24.00217835227388
        ]
      }
    },
    {
      "type": "Feature",
      "properties": {
        "norad_id": 42969,
        "name": "SENTINEL-5P",
        "group": "resource",
        "lat": 34.83917582473875,
        "lon": -68.38178296641622,
        "alt_km": 824.1710720885676,
        "timestamp": "2025-12-25T07:41:09.380491+00:00",
        "meta_object_name": "SENTINEL-5P",
        "meta_object_id": "2017-064A",
        "meta_epoch": "2025-12-24T19:40:42.589632",
        "meta_mean_motion": 14.19520402,
        "meta_eccentricity": 0.0001055,
        "meta_inclination": 98.7802,
        "meta_ra_of_asc_node": 297.2978,
        "meta_arg_of_pericenter": 90.9403,
        "meta_mean_anomaly": 269.1894,
        "meta_ephemeris_type": 0,
        "meta_classification_type": "U",
        "meta_norad_cat_id": 42969,
        "meta_element_set_no": 999,
        "meta_rev_at_epoch": 42482,
        "meta_bstar": 6.0570831e-05,
        "meta_mean_motion_dot": 8.3e-07,
        "meta_mean_motion_ddot": 0,
        "tle_line1": "1 42969U 17064A   25358.81993738  .00000083  00000+0  60571-4 0  9992",
        "tle_line2": "2 42969  98.7802 297.2978 0001055  90.9403 269.1894 14.19520402424823"
      },
      "geometry": {
        "type": "Point",
        "coordinates": [
          -68.38178296641622,
          34.83917582473875
        ]
      }
    },
    {
      "type": "Feature",
      "properties": {
        "norad_id": 42987,
        "name": "SKYSAT-C11",
        "group": "resource",
        "lat": -5.088013070317544,
        "lon": -43.536839403458,
        "alt_km": 426.3876856461802,
        "timestamp": "2025-12-25T07:41:09.380501+00:00",
        "meta_object_name": "SKYSAT-C11",
        "meta_object_id": "2017-068A",
        "meta_epoch": "2025-12-24T21:34:50.650176",
        "meta_mean_motion": 15.4796518,
        "meta_eccentricity": 0.00011157,
        "meta_inclination": 97.4153,
        "meta_ra_of_asc_node": 136.6958,
        "meta_arg_of_pericenter": 96.4287,
        "meta_mean_anomaly": 263.709,
        "meta_ephemeris_type": 0,
        "meta_classification_type": "U",
        "meta_norad_cat_id": 42987,
        "meta_element_set_no": 999,
        "meta_rev_at_epoch": 45619,
        "meta_bstar": 0.00045752243,
        "meta_mean_motion_dot": 0.00023827,
        "meta_mean_motion_ddot": 0,
        "tle_line1": "1 42987U 17068A   25358.89919734  .00023827  00000+0  45752-3 0  9992",
        "tle_line2": "2 42987  97.4153 136.6958 0001115  96.4287 263.7090 15.47965180456191"
      },
      "geometry": {
        "type": "Point",
        "coordinates": [
          -43.536839403458,
          -5.088013070317544
        ]
      }
    },
    {
      "type": "Feature",
      "properties": {
        "norad_id": 42988,
        "name": "SKYSAT-C10",
        "group": "resource",
        "lat": -75.43738941871818,
        "lon": 160.35027233482643,
        "alt_km": 479.5143955147105,
        "timestamp": "2025-12-25T07:41:09.380512+00:00",
        "meta_object_name": "SKYSAT-C10",
        "meta_object_id": "2017-068B",
        "meta_epoch": "2025-12-24T19:29:00.783168",
        "meta_mean_motion": 15.32071049,
        "meta_eccentricity": 0.00043105,
        "meta_inclination": 97.4272,
        "meta_ra_of_asc_node": 129.6977,
        "meta_arg_of_pericenter": 75.127,
        "meta_mean_anomaly": 285.0448,
        "meta_ephemeris_type": 0,
        "meta_classification_type": "U",
        "meta_norad_cat_id": 42988,
        "meta_element_set_no": 999,
        "meta_rev_at_epoch": 45564,
        "meta_bstar": 0.00040464637,
        "meta_mean_motion_dot": 0.00012461,
        "meta_mean_motion_ddot": 0,
        "tle_line1": "1 42988U 17068B   25358.81181462  .00012461  00000+0  40465-3 0  9992",
        "tle_line2": "2 42988  97.4272 129.6977 0004310  75.1270 285.0448 15.32071049455642"
      },
      "geometry": {
        "type": "Point",
        "coordinates": [
          160.35027233482643,
          -75.43738941871818
        ]
      }
    }
  ]
}